CCSDS_OMM_VERS = 2.0
CREATION_DATE  = 
ORIGINATOR     = 

OBJECT_NAME    = CORAL
OBJECT_ID      = 1998-067YB
CENTER_NAME    = EARTH
REF_FRAME      = TEME
TIME_SYSTEM    = UTC
MEAN_ELEMENT_THEORY = SGP/SGP4

EPOCH          = 2026-02-21T11:46:22.341504
MEAN_MOTION    = 15.50667475
ECCENTRICITY   = .00120287
INCLINATION    = 51.6309
RA_OF_ASC_NODE = 152.2369
ARG_OF_PERICENTER = 128.6764
MEAN_ANOMALY   = 231.5303

EPHEMERIS_TYPE = 0
CLASSIFICATION_TYPE = U
NORAD_CAT_ID   = 67685
ELEMENT_SET_NO = 999
REV_AT_EPOCH   = 227
BSTAR          = .74045553E-3
MEAN_MOTION_DOT = .43161E-3
MEAN_MOTION_DDOT = 0

CCSDS_OMM_VERS = 2.0
CREATION_DATE  = 
ORIGINATOR     = 

OBJECT_NAME    = ISS OBJECT YC
OBJECT_ID      = 1998-067YC
CENTER_NAME    = EARTH
REF_FRAME      = TEME
TIME_SYSTEM    = UTC
MEAN_ELEMENT_THEORY = SGP/SGP4

EPOCH          = 2026-02-21T11:44:10.470912
MEAN_MOTION    = 15.50924553
ECCENTRICITY   = .00077168
INCLINATION    = 51.6316
RA_OF_ASC_NODE = 152.2270
ARG_OF_PERICENTER = 100.0521
MEAN_ANOMALY   = 260.1340

EPHEMERIS_TYPE = 0
CLASSIFICATION_TYPE = U
NORAD_CAT_ID   = 67686
ELEMENT_SET_NO = 999
REV_AT_EPOCH   = 227
BSTAR          = .87490753E-3
MEAN_MOTION_DOT = .51525E-3
MEAN_MOTION_DDOT = 0

CCSDS_OMM_VERS = 2.0
CREATION_DATE  = 
ORIGINATOR     = 

OBJECT_NAME    = LEOPARD
OBJECT_ID      = 1998-067YD
CENTER_NAME    = EARTH
REF_FRAME      = TEME
TIME_SYSTEM    = UTC
MEAN_ELEMENT_THEORY = SGP/SGP4

EPOCH          = 2026-02-21T17:58:29.571168
MEAN_MOTION    = 15.50600655
ECCENTRICITY   = .0007779
INCLINATION    = 51.6313
RA_OF_ASC_NODE = 150.9634
ARG_OF_PERICENTER = 103.3723
MEAN_ANOMALY   = 256.8134

EPHEMERIS_TYPE = 0
CLASSIFICATION_TYPE = U
NORAD_CAT_ID   = 67687
ELEMENT_SET_NO = 999
REV_AT_EPOCH   = 223
BSTAR          = .67079706E-3
MEAN_MOTION_DOT = .38879E-3
MEAN_MOTION_DDOT = 0

CCSDS_OMM_VERS = 2.0
CREATION_DATE  = 
ORIGINATOR     = 

OBJECT_NAME    = ISS OBJECT YE
OBJECT_ID      = 1998-067YE
CENTER_NAME    = EARTH
REF_FRAME      = TEME
TIME_SYSTEM    = UTC
MEAN_ELEMENT_THEORY = SGP/SGP4

EPOCH          = 2026-02-21T11:45:04.654944
MEAN_MOTION    = 15.50807123
ECCENTRICITY   = .00076999
INCLINATION    = 51.6323
RA_OF_ASC_NODE = 152.2323
ARG_OF_PERICENTER = 100.5477
MEAN_ANOMALY   = 259.6380

EPHEMERIS_TYPE = 0
CLASSIFICATION_TYPE = U
NORAD_CAT_ID   = 67688
ELEMENT_SET_NO = 999
REV_AT_EPOCH   = 219
BSTAR          = .8084201E-3
MEAN_MOTION_DOT = .47348E-3
MEAN_MOTION_DDOT = 0

CCSDS_OMM_VERS = 2.0
CREATION_DATE  = 
ORIGINATOR     = 

OBJECT_NAME    = PRC TEST SPACECRAFT 4
OBJECT_ID      = 2026-024A
CENTER_NAME    = EARTH
REF_FRAME      = TEME
TIME_SYSTEM    = UTC
MEAN_ELEMENT_THEORY = SGP/SGP4

EPOCH          = 2026-02-21T22:50:20.803488
MEAN_MOTION    = 14.91675679
ECCENTRICITY   = .00061919
INCLINATION    = 49.9852
RA_OF_ASC_NODE = 96.6505
ARG_OF_PERICENTER = 299.5817
MEAN_ANOMALY   = 60.4507

EPHEMERIS_TYPE = 0
CLASSIFICATION_TYPE = U
NORAD_CAT_ID   = 67689
ELEMENT_SET_NO = 999
REV_AT_EPOCH   = 223
BSTAR          = .20564734E-4
MEAN_MOTION_DOT = -.35E-6
MEAN_MOTION_DDOT = 0

CCSDS_OMM_VERS = 2.0
CREATION_DATE  = 
ORIGINATOR     = 

OBJECT_NAME    = CZ-2F R/B
OBJECT_ID      = 2026-024B
CENTER_NAME    = EARTH
REF_FRAME      = TEME
TIME_SYSTEM    = UTC
MEAN_ELEMENT_THEORY = SGP/SGP4

EPOCH          = 2026-02-21T14:43:06.452832
MEAN_MOTION    = 15.33627484
ECCENTRICITY   = .01762904
INCLINATION    = 49.9860
RA_OF_ASC_NODE = 95.1883
ARG_OF_PERICENTER = 208.2335
MEAN_ANOMALY   = 150.8981

EPHEMERIS_TYPE = 0
CLASSIFICATION_TYPE = U
NORAD_CAT_ID   = 67690
ELEMENT_SET_NO = 999
REV_AT_EPOCH   = 222
BSTAR          = .33726703E-3
MEAN_MOTION_DOT = .18108E-3
MEAN_MOTION_DDOT = 0

CCSDS_OMM_VERS = 2.0
CREATION_DATE  = 
ORIGINATOR     = 

OBJECT_NAME    = CZ-2F DEB
OBJECT_ID      = 2026-024C
CENTER_NAME    = EARTH
REF_FRAME      = TEME
TIME_SYSTEM    = UTC
MEAN_ELEMENT_THEORY = SGP/SGP4

EPOCH          = 2026-02-21T13:46:33.854880
MEAN_MOTION    = 15.75327618
ECCENTRICITY   = .0222626
INCLINATION    = 49.9058
RA_OF_ASC_NODE = 91.7640
ARG_OF_PERICENTER = 217.5213
MEAN_ANOMALY   = 141.0046

EPHEMERIS_TYPE = 0
CLASSIFICATION_TYPE = U
NORAD_CAT_ID   = 67691
ELEMENT_SET_NO = 999
REV_AT_EPOCH   = 225
BSTAR          = .81154E-3
MEAN_MOTION_DOT = .728837E-2
MEAN_MOTION_DDOT = .10432E-4

CCSDS_OMM_VERS = 2.0
CREATION_DATE  = 
ORIGINATOR     = 

OBJECT_NAME    = CZ-2F DEB
OBJECT_ID      = 2026-024D
CENTER_NAME    = EARTH
REF_FRAME      = TEME
TIME_SYSTEM    = UTC
MEAN_ELEMENT_THEORY = SGP/SGP4

EPOCH          = 2026-02-21T22:02:37.961088
MEAN_MOTION    = 15.18553829
ECCENTRICITY   = .02543237
INCLINATION    = 50.3139
RA_OF_ASC_NODE = 95.8274
ARG_OF_PERICENTER = 217.9812
MEAN_ANOMALY   = 140.2971

EPHEMERIS_TYPE = 0
CLASSIFICATION_TYPE = U
NORAD_CAT_ID   = 67692
ELEMENT_SET_NO = 999
REV_AT_EPOCH   = 222
BSTAR          = .3704682E-2
MEAN_MOTION_DOT = .189977E-2
MEAN_MOTION_DDOT = 0

CCSDS_OMM_VERS = 2.0
CREATION_DATE  = 
ORIGINATOR     = 

OBJECT_NAME    = STARLINK-36748
OBJECT_ID      = 2026-025A
CENTER_NAME    = EARTH
REF_FRAME      = TEME
TIME_SYSTEM    = UTC
MEAN_ELEMENT_THEORY = SGP/SGP4

EPOCH          = 2026-02-21T22:00:01.999584
MEAN_MOTION    = 15.80862691
ECCENTRICITY   = .00011396
INCLINATION    = 97.2789
RA_OF_ASC_NODE = 163.6570
ARG_OF_PERICENTER = 56.0746
MEAN_ANOMALY   = 287.7075

EPHEMERIS_TYPE = 0
CLASSIFICATION_TYPE = U
NORAD_CAT_ID   = 67693
ELEMENT_SET_NO = 999
REV_AT_EPOCH   = 331
BSTAR          = -.17163828E-3
MEAN_MOTION_DOT = -.32964E-3
MEAN_MOTION_DDOT = 0

CCSDS_OMM_VERS = 2.0
CREATION_DATE  = 
ORIGINATOR     = 

OBJECT_NAME    = STARLINK-36753
OBJECT_ID      = 2026-025B
CENTER_NAME    = EARTH
REF_FRAME      = TEME
TIME_SYSTEM    = UTC
MEAN_ELEMENT_THEORY = SGP/SGP4

EPOCH          = 2026-02-21T22:00:01.999584
MEAN_MOTION    = 15.80966817
ECCENTRICITY   = .00016303
INCLINATION    = 97.2774
RA_OF_ASC_NODE = 163.6696
ARG_OF_PERICENTER = 85.3850
MEAN_ANOMALY   = 288.0740

EPHEMERIS_TYPE = 0
CLASSIFICATION_TYPE = U
NORAD_CAT_ID   = 67694
ELEMENT_SET_NO = 999
REV_AT_EPOCH   = 347
BSTAR          = -.11371366E-2
MEAN_MOTION_DOT = -.214191E-2
MEAN_MOTION_DDOT = 0

CCSDS_OMM_VERS = 2.0
CREATION_DATE  = 
ORIGINATOR     = 

OBJECT_NAME    = STARLINK-36750
OBJECT_ID      = 2026-025C
CENTER_NAME    = EARTH
REF_FRAME      = TEME
TIME_SYSTEM    = UTC
MEAN_ELEMENT_THEORY = SGP/SGP4

EPOCH          = 2026-02-21T22:00:01.999584
MEAN_MOTION    = 15.80810672
ECCENTRICITY   = .0000715
INCLINATION    = 97.2783
RA_OF_ASC_NODE = 163.6613
ARG_OF_PERICENTER = 105.6336
MEAN_ANOMALY   = 248.9253

EPHEMERIS_TYPE = 0
CLASSIFICATION_TYPE = U
NORAD_CAT_ID   = 67695
ELEMENT_SET_NO = 999
REV_AT_EPOCH   = 331
BSTAR          = .23801327E-3
MEAN_MOTION_DOT = .45675E-3
MEAN_MOTION_DDOT = 0

CCSDS_OMM_VERS = 2.0
CREATION_DATE  = 
ORIGINATOR     = 

OBJECT_NAME    = STARLINK-36401
OBJECT_ID      = 2026-025D
CENTER_NAME    = EARTH
REF_FRAME      = TEME
TIME_SYSTEM    = UTC
MEAN_ELEMENT_THEORY = SGP/SGP4

EPOCH          = 2026-02-21T22:00:01.999584
MEAN_MOTION    = 15.80860827
ECCENTRICITY   = .00009256
INCLINATION    = 97.2779
RA_OF_ASC_NODE = 163.6649
ARG_OF_PERICENTER = 70.5003
MEAN_ANOMALY   = 292.8869

EPHEMERIS_TYPE = 0
CLASSIFICATION_TYPE = U
NORAD_CAT_ID   = 67696
ELEMENT_SET_NO = 999
REV_AT_EPOCH   = 331
BSTAR          = -.2732481E-3
MEAN_MOTION_DOT = -.52274E-3
MEAN_MOTION_DDOT = 0

