CORAL                   
1 67685U 98067YB  26052.49053636  .00043161  00000+0  74046-3 0  9991
2 67685  51.6309 152.2369 0012028 128.6764 231.5303 15.50667475  2277
ISS OBJECT YC           
1 67686U 98067YC  26052.48901008  .00051525  00000+0  87491-3 0  9997
2 67686  51.6316 152.2270 0007716 100.0521 260.1340 15.50924553  2272
LEOPARD                 
1 67687U 98067YD  26052.74895337  .00038879  00000+0  67080-3 0  9993
2 67687  51.6313 150.9634 0007779 103.3723 256.8134 15.50600655  2231
ISS OBJECT YE           
1 67688U 98067YE  26052.48963721  .00047348  00000+0  80842-3 0  9990
2 67688  51.6323 152.2323 0007699 100.5477 259.6380 15.50807123  2197
PRC TEST SPACECRAFT 4   
1 67689U 26024A   26052.95162967 -.00000035  00000+0  20565-4 0  9990
2 67689  49.9852  96.6505 0006191 299.5817  60.4507 14.91675679  2238
CZ-2F R/B               
1 67690U 26024B   26052.61326913  .00018108  00000+0  33727-3 0  9990
2 67690  49.9860  95.1883 0176290 208.2335 150.8981 15.33627484  2229
CZ-2F DEB               
1 67691U 26024C   26052.57400295  .00728837  10432-4  81154-3 0  9991
2 67691  49.9058  91.7640 0222626 217.5213 141.0046 15.75327618  2254
CZ-2F DEB               
1 67692U 26024D   26052.91849492  .00189977  00000+0  37047-2 0  9998
2 67692  50.3139  95.8274 0254323 217.9812 140.2971 15.18553829  2224
STARLINK-36748          
1 67693U 26025A   26052.91668981 -.00032964  00000+0 -17164-3 0  9996
2 67693  97.2789 163.6570 0001139  56.0746 287.7075 15.80862691  3314
STARLINK-36753          
1 67694U 26025B   26052.91668981 -.00214191  00000+0 -11371-2 0  9994
2 67694  97.2774 163.6696 0001630  85.3850 288.0740 15.80966817  3470
STARLINK-36750          
1 67695U 26025C   26052.91668981  .00045675  00000+0  23801-3 0  9994
2 67695  97.2783 163.6613 0000715 105.6336 248.9253 15.80810672  3312
STARLINK-36401          
1 67696U 26025D   26052.91668981 -.00052274  00000+0 -27325-3 0  9995
2 67696  97.2779 163.6649 0000925  70.5003 292.8869 15.80860827  3319
